NORAD_CAT_ID,OBJECT_NAME,OBJECT_TYPE,EPOCH,MEAN_MOTION,ECCENTRICITY,INCLINATION,RA_OF_ASC_NODE,ARG_OF_PERICENTER,MEAN_ANOMALY,BSTAR,MEAN_MOTION_DOT,MEAN_MOTION_DDOT,TLE_LINE0,TLE_LINE1,TLE_LINE2,SEMIMAJOR_AXIS,PERIOD,APOGEE,PERIGEE,DECAYED
54178.0,STARLINK-5164,PAYLOAD,2023-06-04 21:02:54,15.08852491,9.08e-05,53.2161,212.6584,68.7095,291.3995,0.00017539,2.506e-05,0.0,0 STARLINK-5164,1 54178U 22141X   23155.87701419  .00002506  00000-0  17539-3 0  9999,2 54178  53.2161 212.6584 0000908  68.7095 291.3995 15.08852491 33563,6917.842,95.437,540.335,539.079,0.0
54178.0,STARLINK-5164,PAYLOAD,2023-06-05 12:56:44,15.08862015,7.99e-05,53.2156,209.6862,91.6109,268.4975,0.00019311,2.789e-05,0.0,0 STARLINK-5164,1 54178U 22141X   23156.53940201  .00002789  00000-0  19311-3 0  9990,2 54178  53.2156 209.6862 0000799  91.6109 268.4975 15.08862015 33668,6917.813,95.436,540.231,539.125,0.0
54178.0,STARLINK-5164,PAYLOAD,2023-06-05 20:53:41,15.08838643,6.8e-05,53.2164,208.1977,80.604,279.5029,1.0289e-05,-1.24e-06,0.0,0 STARLINK-5164,1 54178U 22141X   23156.87061987 -.00000124  00000-0  10289-4 0  9990,2 54178  53.2164 208.1977 0000680  80.6040 279.5029 15.08838643 33718,6917.885,95.438,540.22,539.279,0.0
54178.0,STARLINK-5164,PAYLOAD,2023-06-06 08:01:24,15.08824774,0.0001039,53.2161,206.1175,83.401,276.7101,-0.00011085,-2.051e-05,0.0,0 STARLINK-5164,1 54178U 22141X   23157.33431562 -.00002051  00000-0 -11085-3 0  9998,2 54178  53.2161 206.1175 0001039  83.4010 276.7101 15.08824774 33787,6917.927,95.439,540.511,539.073,0.0
54178.0,STARLINK-5164,PAYLOAD,2023-06-06 12:47:34,15.08829795,9.7e-05,53.2163,205.2252,94.1944,265.9159,-0.00011838,-2.171e-05,0.0,0 STARLINK-5164,1 54178U 22141X   23157.53303368 -.00002171  00000-0 -11838-3 0  9991,2 54178  53.2163 205.2252 0000970  94.1944 265.9159 15.08829795 33818,6917.912,95.438,540.448,539.106,0.0
54178.0,STARLINK-5164,PAYLOAD,2023-06-07 03:06:02,15.0883492,0.0001028,53.2155,202.5496,71.2338,288.8765,-0.00010192,-1.909e-05,0.0,0 STARLINK-5164,1 54178U 22141X   23158.12919227 -.00001909  00000-0 -10192-3 0  9994,2 54178  53.2155 202.5496 0001028  71.2338 288.8765 15.08834920 33900,6917.896,95.438,540.472,539.05,0.0
54178.0,STARLINK-5164,PAYLOAD,2023-06-07 12:38:20,15.08842647,0.000108,53.2157,200.7656,70.5768,289.534,-9.647e-05,-1.823e-05,0.0,0 STARLINK-5164,1 54178U 22141X   23158.52662829 -.00001823  00000-0 -96470-4 0  9990,2 54178  53.2157 200.7656 0001080  70.5768 289.5340 15.08842647 33965,6917.872,95.437,540.484,538.99,0.0
54178.0,STARLINK-5164,PAYLOAD,2023-06-08 09:18:21,15.08836037,0.000113,53.2154,196.8996,77.9281,282.1838,0.00026258,3.893e-05,0.0,0 STARLINK-5164,1 54178U 22141X   23159.38775040  .00003893  00000-0  26258-3 0  9998,2 54178  53.2154 196.8996 0001130  77.9281 282.1838 15.08836037 34093,6917.893,95.438,540.539,538.976,0.0
54178.0,STARLINK-5164,PAYLOAD,2023-06-09 02:47:36,15.0884188,0.0001229,53.2145,193.6288,77.56,282.553,0.00018971,2.733e-05,0.0,0 STARLINK-5164,1 54178U 22141X   23160.11639414  .00002733  00000-0  18971-3 0  9990,2 54178  53.2145 193.6288 0001229  77.5600 282.5530 15.08841880 34200,6917.875,95.437,540.59,538.889,0.0
54178.0,STARLINK-5164,PAYLOAD,2023-06-09 09:09:08,15.08842492,0.0001196,53.2145,192.439,76.8517,283.2608,0.00015533,2.185e-05,0.0,0 STARLINK-5164,1 54178U 22141X   23160.38135347  .00002185  00000-0  15533-3 0  9997,2 54178  53.2145 192.4390 0001196  76.8517 283.2608 15.08842492 34241,6917.873,95.437,540.565,538.91,0.0
54178.0,STARLINK-5164,PAYLOAD,2023-06-10 02:38:23,15.08838459,0.0001233,53.2145,189.1688,89.1966,270.9167,-2.1153e-05,-6.24e-06,0.0,0 STARLINK-5164,1 54178U 22141X   23161.10999431 -.00000624  00000-0 -21153-4 0  9994,2 54178  53.2145 189.1688 0001233  89.1966 270.9167 15.08838459 34354,6917.885,95.438,540.603,538.897,0.0
54178.0,STARLINK-5164,PAYLOAD,2023-06-10 12:10:42,15.08839264,0.0001157,53.2152,187.3841,84.2791,275.8333,2.0134e-05,3.3e-07,0.0,0 STARLINK-5164,1 54178U 22141X   23161.50743707  .00000033  00000-0  20134-4 0  9991,2 54178  53.2152 187.3841 0001157  84.2791 275.8333 15.08839264 34411,6917.883,95.438,540.548,538.947,0.0
54178.0,STARLINK-5164,PAYLOAD,2023-06-11 10:26:06,15.08840648,0.0001121,53.2154,183.2204,81.5705,278.5415,5.7862e-05,6.33e-06,0.0,0 STARLINK-5164,1 54178U 22141X   23162.43479599  .00000633  00000-0  57862-4 0  9993,2 54178  53.2154 183.2204 0001121  81.5705 278.5415 15.08840648 34551,6917.878,95.438,540.519,538.968,0.0
54178.0,STARLINK-5164,PAYLOAD,2023-06-11 12:01:29,15.08841111,0.0001101,53.2153,182.923,81.6473,278.4644,5.4121e-05,5.74e-06,0.0,0 STARLINK-5164,1 54178U 22141X   23162.50103570  .00000574  00000-0  54121-4 0  9993,2 54178  53.2153 182.9230 0001101  81.6473 278.4644 15.08841111 34566,6917.877,95.437,540.504,538.98,0.0
54178.0,STARLINK-5164,PAYLOAD,2023-06-11 18:23:02,15.08837866,0.0001073,53.2152,181.7333,82.0003,278.1111,6.142e-05,6.9e-06,0.0,0 STARLINK-5164,1 54178U 22141X   23162.76599778  .00000690  00000-0  61420-4 0  9999,2 54178  53.2152 181.7333 0001073  82.0003 278.1111 15.08837866 34601,6917.887,95.438,540.494,539.01,0.0
54178.0,STARLINK-5164,PAYLOAD,2023-06-12 10:16:53,15.08838584,0.000108,53.2153,178.7595,81.1197,278.9918,6.9522e-05,8.19e-06,0.0,0 STARLINK-5164,1 54178U 22141X   23163.42839846  .00000819  00000-0  69522-4 0  9990,2 54178  53.2153 178.7595 0001080  81.1197 278.9918 15.08838584 34702,6917.885,95.438,540.497,539.003,0.0
54178.0,STARLINK-5164,PAYLOAD,2023-06-12 18:13:49,15.08840302,0.0001091,53.2155,177.2727,81.8608,278.2508,8.7747e-05,1.109e-05,0.0,0 STARLINK-5164,1 54178U 22141X   23163.75959722  .00001109  00000-0  87747-4 0  9994,2 54178  53.2155 177.2727 0001091  81.8608 278.2508 15.08840302 34755,6917.879,95.438,540.499,538.99,0.0
54178.0,STARLINK-5164,PAYLOAD,2023-06-13 10:07:40,15.08842938,0.0001114,53.2153,174.2986,82.6043,277.5076,7.9269e-05,9.74e-06,0.0,0 STARLINK-5164,1 54178U 22141X   23164.42199538  .00000974  00000-0  79269-4 0  9999,2 54178  53.2153 174.2986 0001114  82.6043 277.5076 15.08842938 34855,6917.871,95.437,540.507,538.966,0.0
54178.0,STARLINK-5164,PAYLOAD,2023-06-13 18:04:36,15.08841983,0.0001128,53.2154,172.8119,81.7134,278.3986,7.3149e-05,8.77e-06,0.0,0 STARLINK-5164,1 54178U 22141X   23164.75319583  .00000877  00000-0  73149-4 0  9992,2 54178  53.2154 172.8119 0001128  81.7134 278.3986 15.08841983 34908,6917.874,95.437,540.52,538.959,0.0
54178.0,STARLINK-5164,PAYLOAD,2023-06-14 00:26:08,15.08840937,0.0001155,53.2153,171.6227,81.3549,278.7574,7.2891e-05,8.72e-06,0.0,0 STARLINK-5164,1 54178U 22141X   23165.01815651  .00000872  00000-0  72891-4 0  9997,2 54178  53.2153 171.6227 0001155  81.3549 278.7574 15.08840937 34949,6917.878,95.437,540.542,538.944,0.0
54178.0,STARLINK-5164,PAYLOAD,2023-06-14 11:33:50,15.08842946,0.0001166,53.2153,169.5413,80.5897,279.5227,7.3586e-05,8.84e-06,0.0,0 STARLINK-5164,1 54178U 22141X   23165.48183499  .00000884  00000-0  73586-4 0  9991,2 54178  53.2153 169.5413 0001166  80.5897 279.5227 15.08842946 35016,6917.871,95.437,540.543,538.93,0.0
54178.0,STARLINK-5164,PAYLOAD,2023-06-14 17:55:23,15.08843447,0.0001165,53.2154,168.3518,80.3475,279.7649,7.4545e-05,8.99e-06,0.0,0 STARLINK-5164,1 54178U 22141X   23165.74679411  .00000899  00000-0  74545-4 0  9996,2 54178  53.2154 168.3518 0001165  80.3475 279.7649 15.08843447 35050,6917.87,95.437,540.541,538.929,0.0
54178.0,STARLINK-5164,PAYLOAD,2023-06-15 06:38:28,15.08837307,0.0001215,53.2157,165.9724,83.3225,276.7906,3.4674e-06,-2.33e-06,0.0,0 STARLINK-5164,1 54178U 22141X   23166.27672035 -.00000233  00000-0  34674-5 0  9993,2 54178  53.2157 165.9724 0001215  83.3225 276.7906 15.08837307 35137,6917.889,95.438,540.594,538.913,0.0
54178.0,STARLINK-5164,PAYLOAD,2023-06-15 11:24:37,15.08838834,0.0001208,53.2157,165.0801,84.5408,275.5722,1.6302e-05,-2.8e-07,0.0,0 STARLINK-5164,1 54178U 22141X   23166.47543916 -.00000028  00000-0  16302-4 0  9999,2 54178  53.2157 165.0801 0001208  84.5408 275.5722 15.08838834 35164,6917.884,95.438,540.585,538.913,0.0
54178.0,STARLINK-5164,PAYLOAD,2023-06-16 06:29:15,15.08843348,0.0001228,53.2159,161.512,83.4805,276.6327,5.816e-05,6.38e-06,0.0,0 STARLINK-5164,1 54178U 22141X   23167.27031516  .00000638  00000-0  58160-4 0  9990,2 54178  53.2159 161.5120 0001228  83.4805 276.6327 15.08843348 35284,6917.87,95.437,540.585,538.886,0.0
54178.0,STARLINK-5164,PAYLOAD,2023-06-16 11:15:24,15.08843893,0.0001233,53.2159,160.62,83.3962,276.7171,6.3089e-05,7.16e-06,0.0,0 STARLINK-5164,1 54178U 22141X   23167.46903443  .00000716  00000-0  63089-4 0  9991,2 54178  53.2159 160.6200 0001233  83.3962 276.7171 15.08843893 35319,6917.868,95.437,540.586,538.881,0.0
54178.0,STARLINK-5164,PAYLOAD,2023-06-16 16:01:33,15.08844106,0.0001237,53.216,159.7278,82.951,277.1623,6.4845e-05,7.44e-06,0.0,0 STARLINK-5164,1 54178U 22141X   23167.66775385  .00000744  00000-0  64845-4 0  9997,2 54178  53.2160 159.7278 0001237  82.9510 277.1623 15.08844106 35341,6917.868,95.437,540.589,538.877,0.0
54178.0,STARLINK-5164,PAYLOAD,2023-06-16 23:58:30,15.0883608,0.0001249,53.2161,158.2409,82.8533,277.2601,4.44e-05,4.19e-06,0.0,0 STARLINK-5164,1 54178U 22141X   23167.99896003  .00000419  00000-0  44400-4 0  9998,2 54178  53.2161 158.2409 0001249  82.8533 277.2601 15.08836080 35393,6917.892,95.438,540.621,538.893,0.0
54178.0,STARLINK-5164,PAYLOAD,2023-06-17 11:06:11,15.08839696,0.0001257,53.2161,156.1599,83.3429,276.7706,8.0905e-05,1e-05,0.0,0 STARLINK-5164,1 54178U 22141X   23168.46263721  .00001000  00000-0  80905-4 0  9993,2 54178  53.2161 156.1599 0001257  83.3429 276.7706 15.08839696 35463,6917.881,95.438,540.616,538.877,0.0
54178.0,STARLINK-5164,PAYLOAD,2023-06-17 15:52:22,15.08829027,0.000166,53.2165,155.2665,84.0658,276.0523,-1.941e-05,-5.97e-06,0.0,0 STARLINK-5164,1 54178U 22141X   23168.66136876 -.00000597  00000-0 -19410-4 0  9990,2 54178  53.2165 155.2665 0001660  84.0658 276.0523 15.08829027 35491,6917.914,95.438,540.927,538.631,0.0
